[{"OBJECT_NAME":"STARLINK-2442","OBJECT_ID":"2021-027Q","EPOCH":"2026-03-10T00:00:02.999808","MEAN_MOTION":15.12843694,"ECCENTRICITY":0.00016767,"INCLINATION":53.0809,"RA_OF_ASC_NODE":150.1574,"ARG_OF_PERICENTER":67.9437,"MEAN_ANOMALY":29.2059,"EPHEMERIS_TYPE":0,"CLASSIFICATION_TYPE":"U","NORAD_CAT_ID":48106,"ELEMENT_SET_NO":999,"REV_AT_EPOCH":580,"BSTAR":0.075140928,"MEAN_MOTION_DOT":0.01463566,"MEAN_MOTION_DDOT":0},{"OBJECT_NAME":"ELARASAT MMS-1","OBJECT_ID":"2025-135M","EPOCH":"2026-03-09T20:37:48.295200","MEAN_MOTION":15.21931569,"ECCENTRICITY":0.0004021,"INCLINATION":97.4601,"RA_OF_ASC_NODE":185.0311,"ARG_OF_PERICENTER":148.9941,"MEAN_ANOMALY":211.1534,"EPHEMERIS_TYPE":0,"CLASSIFICATION_TYPE":"U","NORAD_CAT_ID":64539,"ELEMENT_SET_NO":999,"REV_AT_EPOCH":3976,"BSTAR":0.00049586231,"MEAN_MOTION_DOT":0.00011239,"MEAN_MOTION_DDOT":0}]
